KUIPER-00016            
1 63732U 25088J   25225.91667824 -.00043897  00000+0 -46262-2 0  9997
2 63732  51.8944 310.6218 0010244 104.9302 107.9547 14.88936612  5887
KUIPER-00018            
1 63733U 25088K   25225.91667824 -.00800549  00000+0 -47327-1 0  9995
2 63733  51.8791 303.7405 0011229 108.7331   5.6146 15.13760365  4378
KUIPER-00019            
1 63734U 25088L   25225.91667824 -.00422370  00000+0 -22493-1 0  9995
2 63734  51.8784 302.6576 0007350 129.5008 152.2799 15.16721941  5723
KUIPER-00020            
1 63735U 25088M   25225.94298073  .00011766  00000+0  66515-3 0  9991
2 63735  51.8835 304.7408 0006847 116.6410 243.5269 15.13469908 16853
KUIPER-00021            
1 63736U 25088N   25225.92929934 -.00325193  00000+0 -19420-1 0  9992
2 63736  51.8749 305.4858 0007706 102.4677 257.7161 15.12204847 16674
KUIPER-00023            
1 63737U 25088P   25225.91667824 -.00968941  00000+0 -66322-1 0  9996
2 63737  51.8822 306.4414 0009730 120.3588 107.0707 15.08616061  5687
KUIPER-00024            
1 63738U 25088Q   25225.91667824 -.00615143  00000+0 -21477-1 0  9992
2 63738  51.8756 300.5866 0002599 103.6271  74.9714 15.31293622  4880
KUIPER-00025            
1 63739U 25088R   25225.91667824 -.00018205  00000+0 -10336-2 0  9992
2 63739  51.8841 303.8726 0009389 106.5015 224.0728 15.11930083  5813
